{"fetched_at":"2026-07-19T07:04:50.778Z","source":"https://celestrak.org/NORAD/elements/gp.php?GROUP=planet&FORMAT=JSON","constellation":"superdove","records":[{"OBJECT_NAME":"FLOCK 4H-16","OBJECT_ID":"2025-276BF","EPOCH":"2026-07-18T18:09:48.855744","CLASSIFICATION_TYPE":"U","MEAN_MOTION":15.20174873,"ECCENTRICITY":0.0002966,"INCLINATION":97.4221,"RA_OF_ASC_NODE":272.8387,"ARG_OF_PERICENTER":237.8115,"MEAN_ANOMALY":122.2833,"EPHEMERIS_TYPE":0,"NORAD_CAT_ID":66719,"ELEMENT_SET_NO":999,"REV_AT_EPOCH":3521,"BSTAR":0.00016245,"MEAN_MOTION_DOT":0.00003448,"MEAN_MOTION_DDOT":0},{"OBJECT_NAME":"FLOCK 4H-18","OBJECT_ID":"2025-276BH","EPOCH":"2026-07-18T18:18:53.516160","CLASSIFICATION_TYPE":"U","MEAN_MOTION":15.2011729,"ECCENTRICITY":0.0002191,"INCLINATION":97.4162,"RA_OF_ASC_NODE":272.6554,"ARG_OF_PERICENTER":269.8309,"MEAN_ANOMALY":90.2675,"EPHEMERIS_TYPE":0,"NORAD_CAT_ID":66721,"ELEMENT_SET_NO":999,"REV_AT_EPOCH":3521,"BSTAR":0.00016267,"MEAN_MOTION_DOT":0.00003447,"MEAN_MOTION_DDOT":0},{"OBJECT_NAME":"FLOCK 4H-19","OBJECT_ID":"2025-276BJ","EPOCH":"2026-07-18T18:13:49.427904","CLASSIFICATION_TYPE":"U","MEAN_MOTION":15.21305454,"ECCENTRICITY":0.0002636,"INCLINATION":97.4165,"RA_OF_ASC_NODE":273.121,"ARG_OF_PERICENTER":142.1617,"MEAN_ANOMALY":217.9805,"EPHEMERIS_TYPE":0,"NORAD_CAT_ID":66722,"ELEMENT_SET_NO":999,"REV_AT_EPOCH":3453,"BSTAR":0.00012433,"MEAN_MOTION_DOT":0.00002712,"MEAN_MOTION_DDOT":0},{"OBJECT_NAME":"FLOCK 4H-20","OBJECT_ID":"2025-276BK","EPOCH":"2026-07-18T18:16:21.927360","CLASSIFICATION_TYPE":"U","MEAN_MOTION":15.2147031,"ECCENTRICITY":0.000325,"INCLINATION":97.42,"RA_OF_ASC_NODE":273.2313,"ARG_OF_PERICENTER":161.2493,"MEAN_ANOMALY":198.8863,"EPHEMERIS_TYPE":0,"NORAD_CAT_ID":66723,"ELEMENT_SET_NO":999,"REV_AT_EPOCH":3449,"BSTAR":0.00015137,"MEAN_MOTION_DOT":0.00003333,"MEAN_MOTION_DDOT":0},{"OBJECT_NAME":"FLOCK 4H-21","OBJECT_ID":"2025-276BL","EPOCH":"2026-07-18T17:28:11.424000","CLASSIFICATION_TYPE":"U","MEAN_MOTION":15.2105314,"ECCENTRICITY":0.0003022,"INCLINATION":97.4168,"RA_OF_ASC_NODE":273.0184,"ARG_OF_PERICENTER":160.0182,"MEAN_ANOMALY":200.1172,"EPHEMERIS_TYPE":0,"NORAD_CAT_ID":66724,"ELEMENT_SET_NO":999,"REV_AT_EPOCH":3448,"BSTAR":0.00013912,"MEAN_MOTION_DOT":0.00003021,"MEAN_MOTION_DDOT":0},{"OBJECT_NAME":"FLOCK 4H-22","OBJECT_ID":"2025-276BM","EPOCH":"2026-07-18T04:21:10.390464","CLASSIFICATION_TYPE":"U","MEAN_MOTION":15.20545645,"ECCENTRICITY":0.00010183,"INCLINATION":97.4158,"RA_OF_ASC_NODE":272.1885,"ARG_OF_PERICENTER":269.3201,"MEAN_ANOMALY":90.7917,"EPHEMERIS_TYPE":0,"NORAD_CAT_ID":66725,"ELEMENT_SET_NO":999,"REV_AT_EPOCH":3513,"BSTAR":0.00015774202,"MEAN_MOTION_DOT":0.00003383,"MEAN_MOTION_DDOT":0},{"OBJECT_NAME":"FLOCK 4H-23","OBJECT_ID":"2025-276BN","EPOCH":"2026-07-18T16:43:13.158912","CLASSIFICATION_TYPE":"U","MEAN_MOTION":15.20095161,"ECCENTRICITY":0.0003244,"INCLINATION":97.4228,"RA_OF_ASC_NODE":272.7809,"ARG_OF_PERICENTER":227.023,"MEAN_ANOMALY":133.0733,"EPHEMERIS_TYPE":0,"NORAD_CAT_ID":66726,"ELEMENT_SET_NO":999,"REV_AT_EPOCH":3520,"BSTAR":0.00016145,"MEAN_MOTION_DOT":0.00003419,"MEAN_MOTION_DDOT":0},{"OBJECT_NAME":"FLOCK 4H-24","OBJECT_ID":"2025-276BP","EPOCH":"2026-07-18T17:55:43.962240","CLASSIFICATION_TYPE":"U","MEAN_MOTION":15.20205721,"ECCENTRICITY":0.000256,"INCLINATION":97.4221,"RA_OF_ASC_NODE":272.8596,"ARG_OF_PERICENTER":246.1045,"MEAN_ANOMALY":113.9922,"EPHEMERIS_TYPE":0,"NORAD_CAT_ID":66727,"ELEMENT_SET_NO":999,"REV_AT_EPOCH":3521,"BSTAR":0.00016902,"MEAN_MOTION_DOT":0.00003594,"MEAN_MOTION_DDOT":0},{"OBJECT_NAME":"FLOCK 4H-25","OBJECT_ID":"2025-276BQ","EPOCH":"2026-07-18T17:55:04.456704","CLASSIFICATION_TYPE":"U","MEAN_MOTION":15.20972174,"ECCENTRICITY":0.0002007,"INCLINATION":97.4178,"RA_OF_ASC_NODE":273.0283,"ARG_OF_PERICENTER":125.561,"MEAN_ANOMALY":234.5813,"EPHEMERIS_TYPE":0,"NORAD_CAT_ID":66728,"ELEMENT_SET_NO":999,"REV_AT_EPOCH":3451,"BSTAR":0.00016723,"MEAN_MOTION_DOT":0.00003636,"MEAN_MOTION_DDOT":0},{"OBJECT_NAME":"FLOCK 4H-26","OBJECT_ID":"2025-276BR","EPOCH":"2026-07-18T18:44:48.452640","CLASSIFICATION_TYPE":"U","MEAN_MOTION":15.19928945,"ECCENTRICITY":0.0003323,"INCLINATION":97.4177,"RA_OF_ASC_NODE":272.6712,"ARG_OF_PERICENTER":247.458,"MEAN_ANOMALY":112.6304,"EPHEMERIS_TYPE":0,"NORAD_CAT_ID":66729,"ELEMENT_SET_NO":999,"REV_AT_EPOCH":3521,"BSTAR":0.00015543,"MEAN_MOTION_DOT":0.00003273,"MEAN_MOTION_DDOT":0},{"OBJECT_NAME":"FLOCK 4H-27","OBJECT_ID":"2025-276BS","EPOCH":"2026-07-18T18:39:45.273312","CLASSIFICATION_TYPE":"U","MEAN_MOTION":15.20794637,"ECCENTRICITY":0.0001722,"INCLINATION":97.4153,"RA_OF_ASC_NODE":272.9101,"ARG_OF_PERICENTER":126.2121,"MEAN_ANOMALY":233.9274,"EPHEMERIS_TYPE":0,"NORAD_CAT_ID":66730,"ELEMENT_SET_NO":999,"REV_AT_EPOCH":3523,"BSTAR":0.00014697,"MEAN_MOTION_DOT":0.00003171,"MEAN_MOTION_DDOT":0},{"OBJECT_NAME":"FLOCK 4H-29","OBJECT_ID":"2025-276BU","EPOCH":"2026-07-18T18:14:51.309312","CLASSIFICATION_TYPE":"U","MEAN_MOTION":15.20068665,"ECCENTRICITY":0.000174,"INCLINATION":97.4155,"RA_OF_ASC_NODE":272.6331,"ARG_OF_PERICENTER":258.6506,"MEAN_ANOMALY":101.4533,"EPHEMERIS_TYPE":0,"NORAD_CAT_ID":66732,"ELEMENT_SET_NO":999,"REV_AT_EPOCH":3521,"BSTAR":0.00016283,"MEAN_MOTION_DOT":0.00003446,"MEAN_MOTION_DDOT":0},{"OBJECT_NAME":"FLOCK 4H-30","OBJECT_ID":"2025-276BV","EPOCH":"2026-07-18T16:27:59.736384","CLASSIFICATION_TYPE":"U","MEAN_MOTION":15.20191138,"ECCENTRICITY":0.000275,"INCLINATION":97.4217,"RA_OF_ASC_NODE":272.771,"ARG_OF_PERICENTER":246.544,"MEAN_ANOMALY":113.5506,"EPHEMERIS_TYPE":0,"NORAD_CAT_ID":66733,"ELEMENT_SET_NO":999,"REV_AT_EPOCH":3520,"BSTAR":0.00017288,"MEAN_MOTION_DOT":0.00003676,"MEAN_MOTION_DDOT":0},{"OBJECT_NAME":"FLOCK 4H-31","OBJECT_ID":"2025-276BW","EPOCH":"2026-07-18T10:39:44.862336","CLASSIFICATION_TYPE":"U","MEAN_MOTION":15.19963059,"ECCENTRICITY":0.0002126,"INCLINATION":97.4155,"RA_OF_ASC_NODE":272.289,"ARG_OF_PERICENTER":257.8078,"MEAN_ANOMALY":102.2919,"EPHEMERIS_TYPE":0,"NORAD_CAT_ID":66734,"ELEMENT_SET_NO":999,"REV_AT_EPOCH":3516,"BSTAR":0.00014063851,"MEAN_MOTION_DOT":0.00002957,"MEAN_MOTION_DDOT":0},{"OBJECT_NAME":"FLOCK 4H-32","OBJECT_ID":"2025-276BX","EPOCH":"2026-07-18T18:15:55.641024","CLASSIFICATION_TYPE":"U","MEAN_MOTION":15.2008543,"ECCENTRICITY":0.0003208,"INCLINATION":97.421,"RA_OF_ASC_NODE":272.8,"ARG_OF_PERICENTER":243.4211,"MEAN_ANOMALY":116.6696,"EPHEMERIS_TYPE":0,"NORAD_CAT_ID":66735,"ELEMENT_SET_NO":999,"REV_AT_EPOCH":3521,"BSTAR":0.00015736,"MEAN_MOTION_DOT":0.00003329,"MEAN_MOTION_DDOT":0},{"OBJECT_NAME":"FLOCK 4H-33","OBJECT_ID":"2025-276BY","EPOCH":"2026-07-18T18:46:37.136064","CLASSIFICATION_TYPE":"U","MEAN_MOTION":15.21213699,"ECCENTRICITY":0.0003008,"INCLINATION":97.4207,"RA_OF_ASC_NODE":273.22,"ARG_OF_PERICENTER":152.9713,"MEAN_ANOMALY":207.168,"EPHEMERIS_TYPE":0,"NORAD_CAT_ID":66736,"ELEMENT_SET_NO":999,"REV_AT_EPOCH":3524,"BSTAR":0.00014322,"MEAN_MOTION_DOT":0.00003126,"MEAN_MOTION_DDOT":0}]}
