FLOCK 4H-16             
1 66719U 25276BF  26199.75681546  .00003448  00000+0  16245-3 0  9999
2 66719  97.4221 272.8387 0002966 237.8115 122.2833 15.20174873 35213
FLOCK 4H-18             
1 66721U 25276BH  26199.76311940  .00003447  00000+0  16267-3 0  9994
2 66721  97.4162 272.6554 0002191 269.8309  90.2675 15.20117290 35212
FLOCK 4H-19             
1 66722U 25276BJ  26199.75959986  .00002712  00000+0  12433-3 0  9997
2 66722  97.4165 273.1210 0002636 142.1617 217.9805 15.21305454 34539
FLOCK 4H-20             
1 66723U 25276BK  26199.76136490  .00003333  00000+0  15137-3 0  9990
2 66723  97.4200 273.2313 0003250 161.2493 198.8863 15.21470310 34492
FLOCK 4H-21             
1 66724U 25276BL  26199.72791000  .00003021  00000+0  13912-3 0  9994
2 66724  97.4168 273.0184 0003022 160.0182 200.1172 15.21053140 34486
FLOCK 4H-22             
1 66725U 25276BM  26199.18137026  .00003383  00000+0  15774-3 0  9996
2 66725  97.4158 272.1885 0001018 269.3201  90.7917 15.20545645 35130
FLOCK 4H-23             
1 66726U 25276BN  26199.69668008  .00003419  00000+0  16145-3 0  9995
2 66726  97.4228 272.7809 0003244 227.0230 133.0733 15.20095161 35205
FLOCK 4H-24             
1 66727U 25276BP  26199.74703660  .00003594  00000+0  16902-3 0  9991
2 66727  97.4221 272.8596 0002560 246.1045 113.9922 15.20205721 35212
FLOCK 4H-25             
1 66728U 25276BQ  26199.74657936  .00003636  00000+0  16723-3 0  9994
2 66728  97.4178 273.0283 0002007 125.5610 234.5813 15.20972174 34518
FLOCK 4H-26             
1 66729U 25276BR  26199.78111635  .00003273  00000+0  15543-3 0  9996
2 66729  97.4177 272.6712 0003323 247.4580 112.6304 15.19928945 35216
FLOCK 4H-27             
1 66730U 25276BS  26199.77760733  .00003171  00000+0  14697-3 0  9992
2 66730  97.4153 272.9101 0001722 126.2121 233.9274 15.20794637 35239
FLOCK 4H-29             
1 66732U 25276BU  26199.76031608  .00003446  00000+0  16283-3 0  9993
2 66732  97.4155 272.6331 0001740 258.6506 101.4533 15.20068665 35212
FLOCK 4H-30             
1 66733U 25276BV  26199.68610806  .00003676  00000+0  17288-3 0  9999
2 66733  97.4217 272.7710 0002750 246.5440 113.5506 15.20191138 35204
FLOCK 4H-31             
1 66734U 25276BW  26199.44426924  .00002957  00000+0  14064-3 0  9990
2 66734  97.4155 272.2890 0002126 257.8078 102.2919 15.19963059 35164
FLOCK 4H-32             
1 66735U 25276BX  26199.76106066  .00003329  00000+0  15736-3 0  9999
2 66735  97.4210 272.8000 0003208 243.4211 116.6696 15.20085430 35215
FLOCK 4H-33             
1 66736U 25276BY  26199.78237426  .00003126  00000+0  14322-3 0  9992
2 66736  97.4207 273.2200 0003008 152.9713 207.1680 15.21213699 35241
